STARLINK-31169          
1 58809U 24012Y   26068.28900592  .00002089  00000+0  85432-4 0  9990
2 58809  43.0027 167.5933 0001603 276.3812  83.6857 15.27572273121171
BANDWAGON-4 OBJECT M    
1 66304U 25248M   26068.03503276  .00023645  00000+0  95704-3 0  9995
2 66304  45.4108 294.9904 0012944 207.5285 152.4918 15.24295413 18037
